{"type": "FeatureCollection", "features": [ {"type": "Feature", "properties": {"norad_id": 67228, "name": "QPS-SAR-15", "group": "last-30-days", "lat": -41.68650568063723, "lon": 1.5021922470553453, "alt_km": 573.1218214353703, "timestamp": "2025-12-25T14:48:23.573731+00:00", "meta": {"OBJECT_NAME": "QPS-SAR-15", "OBJECT_ID": "2025-307A", "EPOCH": "2025-12-24T15:12:58.225536", "MEAN_MOTION": 14.97075685, "ECCENTRICITY": 0.00101278, "INCLINATION": 42.0067, "RA_OF_ASC_NODE": 105.1986, "ARG_OF_PERICENTER": 288.6149, "MEAN_ANOMALY": 71.3576, "EPHEMERIS_TYPE": 0, "CLASSIFICATION_TYPE": "U", "NORAD_CAT_ID": 67228, "ELEMENT_SET_NO": 999, "REV_AT_EPOCH": 50, "BSTAR": 0.00051259096, "MEAN_MOTION_DOT": 5.837e-05, "MEAN_MOTION_DDOT": 0}, "tle": {"line1": "1 67228U 25307A   25358.63400724  .00005837  00000+0  51259-3 0  9998", "line2": "2 67228  42.0067 105.1986 0010127 288.6149  71.3576 14.97075685   501"}}, "geometry": {"type": "Point", "coordinates": [1.5021922470553453, -41.68650568063723]}}, {"type": "Feature", "properties": {"norad_id": 67229, "name": "ELECTRON KICK STAGE R/B", "group": "last-30-days", "lat": 41.41549306450405, "lon": 176.23695515185383, "alt_km": 553.7260323918517, "timestamp": "2025-12-25T14:48:23.573741+00:00", "meta": {"OBJECT_NAME": "ELECTRON KICK STAGE R/B", "OBJECT_ID": "2025-307B", "EPOCH": "2025-12-24T13:48:14.301792", "MEAN_MOTION": 15.55758318, "ECCENTRICITY": 0.02455668, "INCLINATION": 42.0011, "RA_OF_ASC_NODE": 103.8717, "ARG_OF_PERICENTER": 260.032, "MEAN_ANOMALY": 97.2731, "EPHEMERIS_TYPE": 0, "CLASSIFICATION_TYPE": "U", "NORAD_CAT_ID": 67229, "ELEMENT_SET_NO": 999, "REV_AT_EPOCH": 51, "BSTAR": 0.0014822418, "MEAN_MOTION_DOT": 0.00454501, "MEAN_MOTION_DDOT": 6.1387959e-05}, "tle": {"line1": "1 67229U 25307B   25358.57516553  .00454501  61388-4  14822-2 0  9991", "line2": "2 67229  42.0011 103.8717 0245566 260.0320  97.2731 15.55758318   517"}}, "geometry": {"type": "Point", "coordinates": [176.23695515185383, 41.41549306450405]}}, {"type": "Feature", "properties": {"norad_id": 67230, "name": "ELECTRON R/B", "group": "last-30-days", "lat": 41.94825231425906, "lon": -170.67095555192776, "alt_km": 548.7529225679555, "timestamp": "2025-12-25T14:48:23.573750+00:00", "meta": {"OBJECT_NAME": "ELECTRON R/B", "OBJECT_ID": "2025-307C", "EPOCH": "2025-12-21T08:41:59.140320", "MEAN_MOTION": 15.55087105, "ECCENTRICITY": 0.02614087, "INCLINATION": 41.982, "RA_OF_ASC_NODE": 123.1026, "ARG_OF_PERICENTER": 268.141, "MEAN_ANOMALY": 88.9482, "EPHEMERIS_TYPE": 0, "CLASSIFICATION_TYPE": "U", "NORAD_CAT_ID": 67230, "ELEMENT_SET_NO": 999, "REV_AT_EPOCH": 1, "BSTAR": 0.00020247584, "MEAN_MOTION_DOT": 0.00071881, "MEAN_MOTION_DDOT": 8.106877e-06}, "tle": {"line1": "1 67230U 25307C   25355.36249005  .00071881  81069-5  20248-3 0  9997", "line2": "2 67230  41.9820 123.1026 0261408 268.1410  88.9482 15.55087105    19"}}, "geometry": {"type": "Point", "coordinates": [-170.67095555192776, 41.94825231425906]}}, {"type": "Feature", "properties": {"norad_id": 67231, "name": "2025-308A", "group": "last-30-days", "lat": 44.519848117654284, "lon": -145.22064583250804, "alt_km": 188.42156161443927, "timestamp": "2025-12-25T14:48:23.573759+00:00", "meta": {"OBJECT_NAME": "2025-308A", "OBJECT_ID": "2025-308A", "EPOCH": "2025-12-25T06:52:34.278240", "MEAN_MOTION": 16.23606019, "ECCENTRICITY": 0.00235166, "INCLINATION": 69.7075, "RA_OF_ASC_NODE": 57.1379, "ARG_OF_PERICENTER": 150.2261, "MEAN_ANOMALY": 210.0304, "EPHEMERIS_TYPE": 0, "CLASSIFICATION_TYPE": "U", "NORAD_CAT_ID": 67231, "ELEMENT_SET_NO": 999, "REV_AT_EPOCH": 36, "BSTAR": 0.00054631608, "MEAN_MOTION_DOT": 0.01488182, "MEAN_MOTION_DDOT": 4.371709e-06}, "tle": {"line1": "1 67231U 25308A   25359.28650785  .01488182  43717-5  54632-3 0  9994", "line2": "2 67231  69.7075  57.1379 0023516 150.2261 210.0304 16.23606019   364"}}, "geometry": {"type": "Point", "coordinates": [-145.22064583250804, 44.519848117654284]}}]}